{
  "type": "FeatureCollection",
  "name": "kamrup_district_boundary",
  "crs": { "type": "name", "properties": { "name": "urn:ogc:def:crs:OGC:1.3:CRS84" } },
  "features": [
    {
      "type": "Feature",
      "properties": {
        "shapeName": "Kamrup",
        "shapeISO": "IN-AS",
        "shapeID": "IND-ADM2-Kamrup",
        "shapeGroup": "IND",
        "shapeType": "ADM2",
        "state": "Assam",
        "district": "Kamrup",
        "area_km2": 793.0
      },
      "geometry": {
        "type": "Polygon",
        "coordinates": [
          [
            [91.30, 26.35],
            [91.35, 26.40],
            [91.45, 26.42],
            [91.55, 26.40],
            [91.65, 26.42],
            [91.75, 26.38],
            [91.85, 26.35],
            [91.90, 26.30],
            [91.95, 26.22],
            [91.98, 26.15],
            [91.95, 26.08],
            [91.90, 26.02],
            [91.85, 25.98],
            [91.78, 25.95],
            [91.70, 25.93],
            [91.60, 25.92],
            [91.50, 25.93],
            [91.42, 25.96],
            [91.35, 26.00],
            [91.30, 26.05],
            [91.27, 26.12],
            [91.25, 26.20],
            [91.26, 26.28],
            [91.30, 26.35]
          ]
        ]
      }
    }
  ]
}
